NORAD_CAT_ID,OBJECT_NAME,OBJECT_TYPE,EPOCH,MEAN_MOTION,ECCENTRICITY,INCLINATION,RA_OF_ASC_NODE,ARG_OF_PERICENTER,MEAN_ANOMALY,BSTAR,MEAN_MOTION_DOT,MEAN_MOTION_DDOT,TLE_LINE0,TLE_LINE1,TLE_LINE2,SEMIMAJOR_AXIS,PERIOD,APOGEE,PERIGEE,DECAYED
52555.0,STARLINK-3949,PAYLOAD,2024-05-05 13:29:41,15.11851889,0.000201,53.2169,270.5451,311.4155,48.6666,0.0015768,0.00027077,0.0,0 STARLINK-3949,1 52555U 22051Y   24126.56229088  .00027077  00000-0  15768-2 0  9999,2 52555  53.2169 270.5451 0002010 311.4155  48.6666 15.11851889109831,6908.69,95.247,531.943,529.166,0.0
52555.0,STARLINK-3949,PAYLOAD,2024-05-05 16:40:05,15.11859054,0.0002036,53.2171,269.9491,312.5177,47.5644,0.00166,0.00028533,0.0,0 STARLINK-3949,1 52555U 22051Y   24126.69450652  .00028533  00000-0  16600-2 0  9990,2 52555  53.2171 269.9491 0002036 312.5177  47.5644 15.11859054109920,6908.668,95.247,531.939,529.126,0.0
52555.0,STARLINK-3949,PAYLOAD,2024-05-06 14:52:47,15.11918093,0.000209,53.2171,265.7745,314.7484,45.3339,0.0019803,0.0003418,0.0,0 STARLINK-3949,1 52555U 22051Y   24127.61999438  .00034180  00000-0  19803-2 0  9996,2 52555  53.2171 265.7745 0002090 314.7484  45.3339 15.11918093109994,6908.488,95.243,531.797,528.909,0.0
52555.0,STARLINK-3949,PAYLOAD,2024-05-06 19:38:21,15.11934924,0.0002132,53.2171,264.8799,316.1414,43.941,0.0020995,0.00036283,0.0,0 STARLINK-3949,1 52555U 22051Y   24127.81830762  .00036283  00000-0  20995-2 0  9992,2 52555  53.2171 264.8799 0002132 316.1414  43.9410 15.11934924110097,6908.437,95.242,531.774,528.829,0.0
52555.0,STARLINK-3949,PAYLOAD,2024-05-07 14:40:37,15.11984112,0.0002224,53.217,261.3011,318.8978,41.1848,0.0017104,0.00029516,0.0,0 STARLINK-3949,1 52555U 22051Y   24128.61154465  .00029516  00000-0  17104-2 0  9999,2 52555  53.2170 261.3011 0002224 318.8978  41.1848 15.11984112110146,6908.287,95.239,531.688,528.615,0.0
52555.0,STARLINK-3949,PAYLOAD,2024-05-07 17:50:59,15.11993411,0.0002275,53.2165,260.7044,319.0736,41.0087,0.0017803,0.00030748,0.0,0 STARLINK-3949,1 52555U 22051Y   24128.74374827  .00030748  00000-0  17803-2 0  9994,2 52555  53.2165 260.7044 0002275 319.0736  41.0087 15.11993411110168,6908.258,95.239,531.695,528.552,0.0
52555.0,STARLINK-3949,PAYLOAD,2024-05-08 14:28:23,15.12050528,0.0002447,53.216,256.8276,322.1587,37.9234,0.001952,0.00033811,0.0,0 STARLINK-3949,1 52555U 22051Y   24129.60305359  .00033811  00000-0  19520-2 0  9996,2 52555  53.2160 256.8276 0002447 322.1587  37.9234 15.12050528110292,6908.084,95.235,531.64,528.259,0.0
52555.0,STARLINK-3949,PAYLOAD,2024-05-08 16:03:34,15.12056194,0.0002463,53.216,256.5294,322.7498,37.3324,0.0020362,0.00035295,0.0,0 STARLINK-3949,1 52555U 22051Y   24129.66915263  .00035295  00000-0  20362-2 0  9997,2 52555  53.2160 256.5294 0002463 322.7498  37.3324 15.12056194110305,6908.067,95.235,531.634,528.231,0.0
52555.0,STARLINK-3949,PAYLOAD,2024-05-09 01:34:40,15.12087363,0.0002404,53.2158,254.7404,321.4271,38.655,0.002142,0.00037187,0.0,0 STARLINK-3949,1 52555U 22051Y   24130.06574137  .00037187  00000-0  21420-2 0  9992,2 52555  53.2158 254.7404 0002404 321.4271  38.6550 15.12087363110436,6907.972,95.233,531.498,528.177,0.0
52555.0,STARLINK-3949,PAYLOAD,2024-05-09 14:16:06,15.12130753,0.0002535,53.2157,252.355,324.3617,35.7207,0.0023724,0.00041293,0.0,0 STARLINK-3949,1 52555U 22051Y   24130.59451441  .00041293  00000-0  23724-2 0  9994,2 52555  53.2157 252.3550 0002535 324.3617  35.7207 15.12130753110442,6907.84,95.23,531.456,527.954,0.0
52555.0,STARLINK-3949,PAYLOAD,2024-05-10 14:03:43,15.12221851,0.0002757,53.2164,247.8822,331.523,28.5612,0.0028236,0.00049385,0.0,0 STARLINK-3949,1 52555U 22051Y   24131.58592151  .00049385  00000-0  28236-2 0  9991,2 52555  53.2164 247.8822 0002757 331.5230  28.5612 15.12221851110662,6907.563,95.224,531.332,527.523,0.0
52555.0,STARLINK-3949,PAYLOAD,2024-05-10 17:14:04,15.12233405,0.0002801,53.2166,247.2858,331.9999,28.0844,0.0028407,0.00049704,0.0,0 STARLINK-3949,1 52555U 22051Y   24131.71810481  .00049704  00000-0  28407-2 0  9990,2 52555  53.2166 247.2858 0002801 331.9999  28.0844 15.12233405110618,6907.528,95.223,531.327,527.458,0.0
52555.0,STARLINK-3949,PAYLOAD,2024-05-11 13:51:11,15.1252059,0.0003056,53.2164,243.4078,336.7606,23.325,0.0082413,0.00147954,0.0,0 STARLINK-3949,1 52555U 22051Y   24132.57721432  .00147954  00000-0  82413-2 0  9995,2 52555  53.2164 243.4078 0003056 336.7606  23.3250 15.12520590110814,6906.653,95.205,530.629,526.407,0.0
52555.0,STARLINK-3949,PAYLOAD,2024-05-12 00:57:14,15.12617442,0.0003163,53.2167,241.3209,339.0315,21.0549,0.0042995,0.00076483,0.0,0 STARLINK-3949,1 52555U 22051Y   24133.03974847  .00076483  00000-0  42995-2 0  9996,2 52555  53.2167 241.3209 0003163 339.0315  21.0549 15.12617442110888,6906.358,95.199,530.408,526.039,0.0
52555.0,STARLINK-3949,PAYLOAD,2024-05-12 13:38:24,15.1264937,0.0003181,53.2173,238.9338,341.7312,18.3567,0.0025892,0.00045783,0.0,0 STARLINK-3949,1 52555U 22051Y   24133.56834095  .00045783  00000-0  25892-2 0  9990,2 52555  53.2173 238.9338 0003181 341.7312  18.3567 15.12649370110960,6906.261,95.197,530.323,525.929,0.0
52555.0,STARLINK-3949,PAYLOAD,2024-05-12 16:48:42,15.12657878,0.0003196,53.2175,238.3372,342.0932,17.9948,0.0027635,0.00048919,0.0,0 STARLINK-3949,1 52555U 22051Y   24133.70048716  .00048919  00000-0  27635-2 0  9994,2 52555  53.2175 238.3372 0003196 342.0932  17.9948 15.12657878110917,6906.235,95.197,530.307,525.893,0.0
52555.0,STARLINK-3949,PAYLOAD,2024-05-13 13:25:33,15.12708312,0.0003322,53.2176,234.4576,344.3112,15.7779,0.0022619,0.00039992,0.0,0 STARLINK-3949,1 52555U 22051Y   24134.55942039  .00039992  00000-0  22619-2 0  9997,2 52555  53.2176 234.4576 0003322 344.3112  15.7779 15.12708312111040,6906.082,95.194,530.241,525.653,0.0
52555.0,STARLINK-3949,PAYLOAD,2024-05-13 16:35:50,15.12714934,0.0003315,53.2177,233.8609,344.7349,15.3544,0.0018523,0.00032668,0.0,0 STARLINK-3949,1 52555U 22051Y   24134.69156118  .00032668  00000-0  18523-2 0  9999,2 52555  53.2177 233.8609 0003315 344.7349  15.3544 15.12714934111064,6906.062,95.193,530.216,525.637,0.0
52555.0,STARLINK-3949,PAYLOAD,2024-05-14 13:12:39,15.12761798,0.0003481,53.217,229.9824,346.9247,13.1656,0.0016922,0.00029846,0.0,0 STARLINK-3949,1 52555U 22051Y   24135.55046105  .00029846  00000-0  16922-2 0  9994,2 52555  53.2170 229.9824 0003481 346.9247  13.1656 15.12761798111269,6905.919,95.19,530.188,525.38,0.0
52555.0,STARLINK-3949,PAYLOAD,2024-05-14 22:43:29,15.12793605,0.0003512,53.2173,228.1915,348.2636,11.8276,0.0019499,0.00034491,0.0,0 STARLINK-3949,1 52555U 22051Y   24135.94686436  .00034491  00000-0  19499-2 0  9998,2 52555  53.2173 228.1915 0003512 348.2636  11.8276 15.12793605111250,6905.822,95.188,530.112,525.262,0.0
52555.0,STARLINK-3949,PAYLOAD,2024-05-15 12:59:41,15.12868529,0.0003504,53.2173,225.5052,349.5088,10.5832,0.0029233,0.00052096,0.0,0 STARLINK-3949,1 52555U 22051Y   24136.54144728  .00052096  00000-0  29233-2 0  9996,2 52555  53.2173 225.5052 0003504 349.5088  10.5832 15.12868529111419,6905.594,95.183,529.879,525.039,0.0
52555.0,STARLINK-3949,PAYLOAD,2024-05-15 16:09:56,15.12898113,0.0003645,53.2176,224.9097,351.9645,8.129,0.003805,0.00068108,0.0,0 STARLINK-3949,1 52555U 22051Y   24136.67357230  .00068108  00000-0  38050-2 0  9992,2 52555  53.2176 224.9097 0003645 351.9645   8.1290 15.12898113111431,6905.504,95.182,529.886,524.852,0.0
52555.0,STARLINK-3949,PAYLOAD,2024-05-15 22:30:27,15.12930607,0.0003782,53.2165,223.7151,349.9265,10.1653,0.0035597,0.00063718,0.0,0 STARLINK-3949,1 52555U 22051Y   24136.93781722  .00063718  00000-0  35597-2 0  9993,2 52555  53.2165 223.7151 0003782 349.9265  10.1653 15.12930607111402,6905.405,95.18,529.882,524.659,0.0
52555.0,STARLINK-3949,PAYLOAD,2024-05-16 12:46:35,15.13008293,0.0003811,53.2171,221.0291,351.2267,8.866,0.0045172,0.00081314,0.0,0 STARLINK-3949,1 52555U 22051Y   24137.53235038  .00081314  00000-0  45172-2 0  9996,2 52555  53.2171 221.0291 0003811 351.2267   8.8660 15.13008293111495,6905.169,95.175,529.665,524.402,0.0
52555.0,STARLINK-3949,PAYLOAD,2024-05-16 22:17:18,15.13053791,0.0003931,53.2169,219.2392,352.674,7.4196,0.0029488,0.00052834,0.0,0 STARLINK-3949,1 52555U 22051Y   24137.92868855  .00052834  00000-0  29488-2 0  9995,2 52555  53.2169 219.2392 0003931 352.6740   7.4196 15.13053791111556,6905.03,95.172,529.61,524.181,0.0
52555.0,STARLINK-3949,PAYLOAD,2024-05-17 10:58:16,15.13052617,0.0003782,53.2163,216.8512,346.865,13.2245,0.0018149,0.00032307,0.0,0 STARLINK-3949,1 52555U 22051Y   24138.45713534  .00032307  00000-0  18149-2 0  9992,2 52555  53.2163 216.8512 0003782 346.8650  13.2245 15.13052617111709,6905.034,95.172,529.51,524.288,0.0
52555.0,STARLINK-3949,PAYLOAD,2024-05-17 22:04:06,15.13073385,0.0003916,53.2153,214.7621,347.5315,12.5582,0.001531,0.00027203,0.0,0 STARLINK-3949,1 52555U 22051Y   24138.91952094  .00027203  00000-0  15310-2 0  9995,2 52555  53.2153 214.7621 0003916 347.5315  12.5582 15.13073385111702,6904.971,95.171,529.54,524.132,0.0
52555.0,STARLINK-3949,PAYLOAD,2024-05-18 12:20:08,15.13154776,0.0004398,53.2143,212.0692,352.3922,7.7004,0.0023342,0.00041815,0.0,0 STARLINK-3949,1 52555U 22051Y   24139.51399190  .00041815  00000-0  23342-2 0  9993,2 52555  53.2143 212.0692 0004398 352.3922   7.7004 15.13154776111869,6904.723,95.165,529.625,523.551,0.0
52555.0,STARLINK-3949,PAYLOAD,2024-05-18 13:55:15,15.13161703,0.0004143,53.2147,211.7745,352.7616,7.3318,0.0029012,0.0005213,0.0,0 STARLINK-3949,1 52555U 22051Y   24139.58004244  .00052130  00000-0  29012-2 0  9995,2 52555  53.2147 211.7745 0004143 352.7616   7.3318 15.13161703111806,6904.702,95.165,529.428,523.707,0.0
52555.0,STARLINK-3949,PAYLOAD,2024-05-18 21:50:48,15.1320355,0.0004197,53.2144,210.2814,353.5189,6.575,0.0027603,0.00049625,0.0,0 STARLINK-3949,1 52555U 22051Y   24139.91028856  .00049625  00000-0  27603-2 0  9996,2 52555  53.2144 210.2814 0004197 353.5189   6.5750 15.13203550111850,6904.575,95.162,529.338,523.542,0.0
